ONEWEB-0196             
1 48218U 21031J   25112.20957886 -.00000244  00000+0 -69337-3 0  9998
2 48218  87.9094  13.4356 0001724  82.2741 277.8584 13.14502400192915
ONEWEB-0183             
1 48219U 21031K   25111.72749413  .00000145  00000+0  35733-3 0  9991
2 48219  87.9090  13.5447 0001988  83.7405 276.3952 13.14501470192952
ONEWEB-0185             
1 48220U 21031L   25112.21035577 -.00000185  00000+0 -53345-3 0  9992
2 48220  87.9091  13.4171 0001719  92.3706 267.7620 13.14501016192941
ONEWEB-0187             
1 48221U 21031M   25111.65758746 -.00000026  00000+0 -10405-3 0  9994
2 48221  87.9107  13.5669 0001830  88.6583 271.4756 13.14502207192886
ONEWEB-0192             
1 48222U 21031N   25111.70371495  .00000175  00000+0  43865-3 0  9992
2 48222  87.9090  13.5537 0001821  78.0716 282.0618 13.14502208192801
ONEWEB-0219             
1 48223U 21031P   25111.68310056 -.00000288  00000+0 -81111-3 0  9999
2 48223  87.9100  13.5295 0001832  79.5316 280.6020 13.14501261193001
ONEWEB-0202             
1 48224U 21031Q   25112.19689446 -.00000054  00000+0 -18028-3 0  9997
2 48224  87.9110  13.4418 0001124  87.5174 272.6084 13.14501978193066
ONEWEB-0204             
1 48225U 21031R   25111.69815862  .00000099  00000+0  23168-3 0  9993
2 48225  87.9080  13.5550 0002112  82.8988 277.2382 13.14502156192880
